#aV2015  3  2  0  0  0.00000000     288 DD+AD WGS84 FIT  NGA
## 1834  86400.00000000   300.00000000 57083 0.0000000000000
+   31     1  2  3  4  5  6  7  8  9 10 11 12 13 14 15 16 17
+         18 19 20 21 22 23 24 25 27 28 29 30 31 32  0  0  0
+          0  0  0  0  0  0  0  0  0  0  0  0  0  0  0  0  0
+          0  0  0  0  0  0  0  0  0  0  0  0  0  0  0  0  0
+          0  0  0  0  0  0  0  0  0  0  0  0  0  0  0  0  0
++         2  2  2  2  2  2  2  2  2  2  2  2  2  2  2  2  2
++         2  2  2  2  2  2  2  2  2  2  2  2  2  2  0  0  0
++         0  0  0  0  0  0  0  0  0  0  0  0  0  0  0  0  0
++         0  0  0  0  0  0  0  0  0  0  0  0  0  0  0  0  0
++         0  0  0  0  0  0  0  0  0  0  0  0  0  0  0  0  0
%c cc cc ccc ccc cccc cccc cccc cccc ccccc ccccc ccccc ccccc
%c cc cc ccc ccc cccc cccc cccc cccc ccccc ccccc ccccc ccccc
%f  0.0000000  0.000000000  0.00000000000  0.000000000000000
%f  0.0000000  0.000000000  0.00000000000  0.000000000000000
%i    0    0    0    0      0      0      0      0         0
%i    0    0    0    0      0      0      0      0         0
/*      NGA, ST. LOUIS,MO.                                  
/*   EPHEMERIS COMPUTED FROM  1 DAYS OF DATA                
/*   EPOCHA SMOOTHER                                       
/* CCCCCCCCCCCCCCCCCCCCCCCCCCCCCCCCCCCCCCCCCCCCCCCCCCCCCCCCC
*  2015  3  2  0 25  0.00000000
P  1   5950.213823 -18443.691972 -18133.197079     -8.444238                    
V  1  20460.794602 -10601.758607  17715.292547      0.004328                    
P  2 -21904.140226  14558.846103     83.584304    550.993027                    
V  2  -1877.166758  -3392.099128 -31612.890051      0.023091                    
P  3  -4160.752572 -17641.577424 -19393.310665    235.157216                    
V  3  22361.031724  10473.206746 -14362.073200      0.188221                    
P  4  14616.279998 -19113.145913 -11264.578979     -8.182219                    
V  4  13431.083509  -4926.916047  26797.311462     -0.008586                    
P  5 -15827.285631   7805.757197  19848.704261   -272.441068                    
V  5 -21834.530429 -12865.721619 -12141.489897      0.050277                    
P  6 -22757.073555   3262.597445 -13294.104795     96.506697                    
V  6  13156.044115 -10800.112100 -25190.619562      0.108984                    
P  7  -7994.882455 -12736.167747  21993.993752    444.343247                    
V  7  23920.803449 -13878.975866    310.573533      0.030458                    
P  8  24030.997940 -10444.005275   -591.823280     18.111529                    
V  8     12.337840   2473.356528 -32907.980862      0.003522                    
P  9  -7941.811417 -23224.623932  10122.753399   -101.379740                    
V  9   2142.311918 -12961.924942 -28039.941187     -0.106287                    
P 10 -24586.361882  -8516.358157   5965.542560   -165.467496                    
V 10  -5567.603909  -6473.950905 -29829.705940     -0.015529                    
P 11   7714.071664 -23241.868011 -10633.726045   -561.327375                    
V 11  11428.627331  -7456.289498  26014.848211     -0.027029                    
P 12    793.993152  16488.430350 -20945.794481    273.275476                    
V 12 -22844.285192 -12976.305260 -10909.539536      0.030116                    
P 13 -12494.820784  16640.363284  16424.939790    -92.797356                    
V 13    110.733130 -21118.727534  21165.073732     -0.034565                    
P 14  14339.907523   6481.341626 -21189.645260     82.827041                    
V 14  -1762.979556  27347.885117   6951.648272     -0.034841                    
P 15  -3854.808430  24904.290468   7768.895536   -235.206801                    
V 15  -4465.855072  -9796.417803  29178.767632     -0.022256                    
P 16  16044.752641  -5804.768002  20399.347752   -151.913298                    
V 16  21671.208736  14117.284469 -12622.062433      0.033847                    
P 17 -13859.258308  -9243.346294 -20446.166232   -158.628980                    
V 17   1140.036563 -26527.224992  10854.683772     -0.020070                    
P 18  20313.167155  16175.164479   6791.780860    383.219821                    
V 18  -8651.466285   -629.217040  29160.759540      0.027883                    
P 19   8761.968944 -22339.812359  10685.229560   -502.399926                    
V 19   1763.646455  14118.389913  28065.653362     -0.014080                    
P 20 -24707.436278  -9787.493131   1571.195267    295.092597                    
V 20   -466.466485  -4359.277773 -30820.910516      0.041052                    
P 21  13137.517254  10363.427739  21371.909263   -421.953394                    
V 21 -21325.732938  14198.855250   6041.988864     -0.039775                    
P 22  24717.064040   8548.341067  -4913.632069    323.813076                    
V 22   4066.126347   6338.409000  29948.137636      0.042741                    
P 23   -974.990251 -26303.786815    416.450567    -92.210817                    
V 23   3566.347255   -469.476662 -31761.661686     -0.026087                    
P 24  -8774.688676  19163.674062 -16105.560088    -44.274318                    
V 24 -18372.082527   9266.408080  21215.526395     -0.006666                    
P 25  13919.889522  18037.550242 -13870.875683     -7.563910                    
V 25 -16092.459942  -6750.462680 -24921.479353     -0.029749                    
P 27  12438.592290 -14118.725963  18696.468794     54.940640                    
V 27   2250.389800  23716.103376  16500.541739      0.026558                    
P 28 -22754.516032 -13727.671888   -719.193033    423.005050                    
V 28   -413.339310  -2478.797595  32284.372193      0.025453                    
P 29   4250.936793  25286.660546   7040.291505    595.170079                    
V 29  -2487.686095   8824.548145 -30285.342485      0.023760                    
P 30 -17520.216624  -6013.170850  19046.593356    -82.446701                    
V 30  20825.207365 -12395.508550  15187.222697      0.019850                    
P 31  23844.317665  -5435.483945 -10640.489818    322.156963                    
V 31 -10854.468791   8354.404880 -27897.934127     -0.008863                    
P 32  10788.709201 -11362.522369 -21409.155432   -211.641144                    
V 32  22562.277129  15330.645379   3774.679994      0.092363                    
EOF
